STARLINK-30151          
1 56827U 23079E   24289.59780110 -.00000779  00000+0 -42594-4 0  9997
2 56827  43.0016 359.0380 0001120 261.0719  98.9997 15.02548803 75821
STARLINK-30152          
1 56828U 23079F   24289.92686399 -.00001432  00000+0 -90883-4 0  9990
2 56828  43.0039 357.2153 0001189 260.9254  99.1454 15.02552748 76209
STARLINK-30128          
1 56832U 23079K   24289.83211329 -.00001482  00000+0 -94657-4 0  9990
2 56832  43.0019 331.8001 0000404 260.8344  99.2453 15.02538746 70082
STARLINK-30131          
1 56833U 23079L   24289.82102910  .00001066  00000+0  93920-4 0  9993
2 56833  43.0032 331.8736 0000997 259.2300 100.8430 15.02543500 76482
STARLINK-30069          
1 56834U 23079M   24289.92352586 -.00000589  00000+0 -28480-4 0  9991
2 56834  43.0045 357.1843 0001525 260.7956  99.2714 15.02554756 76200
STARLINK-30144          
1 56835U 23079N   24289.92019783 -.00000594  00000+0 -28877-4 0  9997
2 56835  43.0073 357.1658 0002113 284.0740  75.9867 15.02555438 76208
STARLINK-30142          
1 56836U 23079P   24289.91687194 -.00000878  00000+0 -49911-4 0  9991
2 56836  43.0036 357.1403 0000998 268.6068  91.4660 15.02550385 76206
STARLINK-30133          
1 56837U 23079Q   24289.91354351 -.00002775  00000+0 -19039-3 0  9993
2 56837  43.0040 357.1002 0001256 273.6624  86.4075 15.02544160 76207
STARLINK-30123          
1 56838U 23079R   24289.89031944 -.00014355  00000+0 -10481-2 0  9999
2 56838  43.0016 357.6751 0000469 296.7334  63.3460 15.02597461 75861
STARLINK-30076          
1 56839U 23079S   24289.91021544 -.00002425  00000+0 -16449-3 0  9994
2 56839  43.0027 357.0775 0000722 255.7463 104.3299 15.02548198 76202
STARLINK-30073          
1 56840U 23079T   24289.91667824 -.00012674  00000+0 -85136-3 0  9999
2 56840  43.0022 344.4483 0001818 281.5023 246.5706 15.05613009  5639
STARLINK-30078          
1 56841U 23079U   24289.90688274  .00007108  00000+0  54052-3 0  9998
2 56841  43.0027 357.0639 0001434 277.8655  82.2024 15.02551989 76205
STARLINK-30135          
1 56842U 23079V   24289.88033543 -.00011626  00000+0 -84560-3 0  9998
2 56842  43.0040 357.6272 0000878 270.0799  89.9942 15.02597016 75860
STARLINK-30137          
1 56843U 23079W   24289.26874151 -.00003235  00000+0 -22440-3 0  9995
2 56843  43.0075   0.7790 0002389 293.3772  66.6819 15.02543044 75775
STARLINK-30136          
1 56844U 23079X   24289.89366827 -.00000050  00000+0  11349-4 0  9999
2 56844  43.0042 357.7160 0001464 269.7987  90.2687 15.02540049 76199
2023-081A               
1 56846U 23081A   24289.70178909  .00005735  00000+0  27581-3 0  9994
2 56846  97.4122   0.0301 0001695  88.6593 271.4836 15.19184482 75400
2023-081B               
1 56847U 23081B   24289.91863455  .00043588  00000+0  14961-2 0  9990
2 56847  97.3644   0.0142 0001481 168.4078 191.7197 15.30009864 75508
2023-081C               
1 56848U 23081C   24289.90954456  .00177874  00000+0  18311-2 0  9991
2 56848  97.3568   9.0980 0006059 265.0852  94.9716 15.64260865 76120
2023-081D               
1 56849U 23081D   24289.91454646  .00169420  00000+0  18708-2 0  9997
2 56849  97.3611   9.2586 0006057 313.5814  46.4941 15.62487494 76128
2023-081E               
1 56850U 23081E   24289.90846788  .00169720  00000+0  18626-2 0  9992
2 56850  97.3628   9.4698 0005572 314.6785  45.4018 15.62648728 76138
2023-081F               
1 56851U 23081F   24289.91820816  .00045138  00000+0  15490-2 0  9990
2 56851  97.3636 359.4011 0001314 145.3101 214.8226 15.30007470 75462
2023-081G               
1 56852U 23081G   24289.91426126  .00173875  00000+0  18395-2 0  9994
2 56852  97.3542   9.0985 0006557 266.7737  93.2771 15.63572174 76126
2023-081H               
1 56853U 23081H   24289.89970639  .00167267  00000+0  18423-2 0  9995
2 56853  97.3655   9.6661 0006472 316.9094  43.1657 15.62557787 76128
2023-081J               
1 56854U 23081J   24289.89018399  .00179437  00000+0  18122-2 0  9990
2 56854  97.3539   9.1054 0005474 267.5769  92.4864 15.64745957 76129
2023-081K               
1 56855U 23081K   24289.90257699  .00161562  00000+0  18168-2 0  9991
2 56855  97.3581   9.1467 0007595 319.4005  40.6686 15.62029842 76124
2023-081L               
1 56856U 23081L   24289.91841303  .00045253  00000+0  15531-2 0  9993
2 56856  97.3643   0.0124 0001117 153.8508 206.2789 15.30003938 75504
2023-081M               
1 56857U 23081M   24289.93375732  .00166884  00000+0  16786-2 0  9991
2 56857  97.3558   9.2942 0004719 258.5705 101.5025 15.64892719 76132
2023-081N               
1 56858U 23081N   24289.91812083  .00045266  00000+0  15538-2 0  9999
2 56858  97.3648   0.6245 0001065 126.1438 233.9901 15.29998817 75542
2023-081P               
1 56859U 23081P   24289.88311891  .00173712  00000+0  19145-2 0  9993
2 56859  97.3679   9.7184 0007462 307.2283  52.8293 15.62512958 76128
2023-081Q               
1 56860U 23081Q   24289.88219892  .00161935  00000+0  17076-2 0  9998
2 56860  97.3538   9.0881 0006862 268.2405  91.8068 15.63691731 76127
2023-081R               
1 56861U 23081R   24289.88514047  .00164744  00000+0  18674-2 0  9995
2 56861  97.3596   9.2738 0008076 309.8491  50.2056 15.61808352 76124
2023-081S               
1 56862U 23081S   24289.93444279  .00177355  00000+0  19319-2 0  9990
2 56862  97.3631   9.6075 0007563 301.6596  58.3924 15.62802643 76131
2023-081T               
1 56863U 23081T   24289.92482976  .00179628  00000+0  18413-2 0  9995
2 56863  97.3612   9.6263 0006962 270.0070  90.0391 15.64357316 76133
2023-081U               
1 56864U 23081U   24289.92611237  .00173947  00000+0  17998-2 0  9995
2 56864  97.3619   9.6587 0006813 270.0690  89.9788 15.64138313 76134
2023-081V               
1 56865U 23081V   24289.93141794  .00164512  00000+0  18424-2 0  9996
2 56865  97.3655   9.6790 0008069 312.5298  47.5278 15.62122439 76136
2023-081W               
1 56866U 23081W   24289.89878432  .00017022  00000+0  80908-3 0  9998
2 56866  97.3680 359.0004 0016130 356.4758   3.6361 15.19157135 75421
2023-081X               
1 56867U 23081X   24289.91052600  .00188259  00000+0  19131-2 0  9993
2 56867  97.3655   9.7366 0006804 275.2696  84.7787 15.64552026 76139
2023-081Y               
1 56868U 23081Y   24289.90844950  .00178085  00000+0  18131-2 0  9995
2 56868  97.3645   9.7311 0006562 271.3975  88.6533 15.64538240 76142
2023-081AA              
1 56870U 23081AA  24289.87939372  .00188806  00000+0  18992-2 0  9994
2 56870  97.3641   9.7101 0005282 265.7178  94.3478 15.64819146 76125
2023-081AB              
1 56871U 23081AB  24289.89117548  .00161260  00000+0  16978-2 0  9997
2 56871  97.3569   9.1815 0006496 266.8816  93.1700 15.63736992 76121
2023-081AC              
1 56872U 23081AC  24289.89473518  .00167272  00000+0  18653-2 0  9991
2 56872  97.3573   9.0491 0007363 311.1655  48.8968 15.62230735 76121
LONGJIANG 3             
1 56874U 23082A   24289.95096235  .00039997  00000+0  11419-2 0  9993
2 56874  49.1191 272.2177 0006467 347.3416  12.7368 15.35544150 75840
STARLINK-6206           
1 56876U 23083A   24289.85658897  .00002524  00000+0  20183-3 0  9998
2 56876  43.0042 332.4682 0001310 256.7118 103.3578 15.02540634 74974
STARLINK-6209           
1 56877U 23083B   24289.84881852  .00003469  00000+0  27172-3 0  9991
2 56877  43.0033 332.4111 0001512 266.0441  94.0229 15.02541591 74971
STARLINK-6182           
1 56878U 23083C   24289.85548521  .00001176  00000+0  10213-3 0  9997
2 56878  43.0029 332.4580 0000703 294.3224  65.7544 15.02531316 74970
STARLINK-5707           
1 56879U 23083D   24289.85214872  .00004493  00000+0  34736-3 0  9998
2 56879  43.0040 332.4341 0001145 264.1338  95.9374 15.02545887 74975
STARLINK-6177           
1 56880U 23083E   24289.84215855  .00001141  00000+0  99479-4 0  9994
2 56880  43.0045 332.3610 0001060 271.7376  88.3345 15.02539284 74970
STARLINK-5853           
1 56881U 23083F   24289.84994383 -.00000322  00000+0 -87727-5 0  9991
2 56881  42.9999 332.4175 0001098  73.2917 286.8046 15.02531471 74974
STARLINK-6175           
1 56882U 23083G   24289.83660895  .00003092  00000+0  24379-3 0  9996
2 56882  43.0063 332.3139 0001330 266.1307  93.9383 15.02542949 74976
STARLINK-6171           
1 56883U 23083H   24289.84661501  .00000968  00000+0  86708-4 0  9997
2 56883  42.9984 332.3952 0000599 301.2407  58.8376 15.02536489 74972
STARLINK-5515           
1 56884U 23083J   24289.82994744  .00001660  00000+0  13793-3 0  9997
2 56884  43.0062 332.2618 0001356 273.5187  86.5500 15.02544505 74973
STARLINK-5095           
1 56885U 23083K   24289.84327428 -.00000160  00000+0  32062-5 0  9996
2 56885  43.0016 332.3642 0000938 273.3360  86.7375 15.02537808 74977
STARLINK-5496           
1 56886U 23083L   24289.82883997  .00000996  00000+0  88760-4 0  9994
2 56886  43.0051 332.2548 0001416 269.6537  90.4143 15.02546582 74971
STARLINK-6180           
1 56887U 23083M   24289.50089176  .00001137  00000+0  99227-4 0  9995
2 56887  43.0068 334.0924 0001904 266.7301  93.3323 15.02540513 74922
STARLINK-6181           
1 56888U 23083N   24289.81552498  .00001443  00000+0  12186-3 0  9990
2 56888  43.0032 332.1578 0001120 286.6545  73.4174 15.02539209 74977
STARLINK-6169           
1 56889U 23083P   24289.82551096  .00006848  00000+0  52147-3 0  9990
2 56889  43.0026 332.2316 0001354 268.1660  91.9027 15.02537716 74977
STARLINK-5528           
1 56890U 23083Q   24289.81662519 -.00006581  00000+0 -47213-3 0  9998
2 56890  43.0033 332.1635 0000879 246.5086 113.5664 15.02571189 74973
STARLINK-6213           
1 56891U 23083R   24289.82217583  .00001096  00000+0  96170-4 0  9998
2 56891  43.0052 332.2054 0001751 262.9937  97.0707 15.02542068 74976
STARLINK-6219           
1 56892U 23083S   24289.80886165  .00001682  00000+0  13952-3 0  9992
2 56892  43.0048 332.1038 0001366 264.7220  95.3466 15.02542472 74972
